[{"OBJECT_NAME":"ONEWEB-0650","OBJECT_ID":"2023-029T","EPOCH":"2026-03-09T23:38:37.664160","MEAN_MOTION":13.19724893,"ECCENTRICITY":0.00019494,"INCLINATION":87.9226,"RA_OF_ASC_NODE":324.7438,"ARG_OF_PERICENTER":91.7491,"MEAN_ANOMALY":268.3865,"EPHEMERIS_TYPE":0,"CLASSIFICATION_TYPE":"U","NORAD_CAT_ID":55813,"ELEMENT_SET_NO":999,"REV_AT_EPOCH":14581,"BSTAR":-0.00088601634,"MEAN_MOTION_DOT":-3.42e-6,"MEAN_MOTION_DDOT":0},{"OBJECT_NAME":"FENGYUN 1C DEB","OBJECT_ID":"1999-025ELC","EPOCH":"2026-03-03T07:24:09.370656","MEAN_MOTION":13.86110343,"ECCENTRICITY":0.03376894,"INCLINATION":98.1986,"RA_OF_ASC_NODE":92.6159,"ARG_OF_PERICENTER":136.8862,"MEAN_ANOMALY":287.1542,"EPHEMERIS_TYPE":0,"CLASSIFICATION_TYPE":"U","NORAD_CAT_ID":37687,"ELEMENT_SET_NO":999,"REV_AT_EPOCH":84370,"BSTAR":0.003258083,"MEAN_MOTION_DOT":5.848e-5,"MEAN_MOTION_DDOT":0}]
